{
  "type": "FeatureCollection",
  "features": [
    {
      "type": "Feature",
      "properties": {
        "norad_id": 25590,
        "name": "COSMOS 2361",
        "group": "musson",
        "lat": -59.17515081232773,
        "lon": 172.59678714385606,
        "alt_km": 973.4844639798475,
        "timestamp": "2025-12-17T10:52:54.623094+00:00",
        "meta_object_name": "COSMOS 2361",
        "meta_object_id": "1998-076A",
        "meta_epoch": "2025-12-16T23:18:46.375776",
        "meta_mean_motion": 13.73218058,
        "meta_eccentricity": 0.0030093,
        "meta_inclination": 82.934,
        "meta_ra_of_asc_node": 340.9564,
        "meta_arg_of_pericenter": 253.3354,
        "meta_mean_anomaly": 124.9282,
        "meta_ephemeris_type": 0,
        "meta_classification_type": "U",
        "meta_norad_cat_id": 25590,
        "meta_element_set_no": 999,
        "meta_rev_at_epoch": 35169,
        "meta_bstar": 7.0077243e-05,
        "meta_mean_motion_dot": 8e-07,
        "meta_mean_motion_ddot": 0,
        "tle_line1": "1 25590U 98076A   25350.97137009  .00000080  00000+0  70077-4 0  9994",
        "tle_line2": "2 25590  82.9340 340.9564 0030093 253.3354 124.9282 13.73218058351690"
      },
      "geometry": {
        "type": "Point",
        "coordinates": [
          172.59678714385606,
          -59.17515081232773
        ]
      }
    },
    {
      "type": "Feature",
      "properties": {
        "norad_id": 26818,
        "name": "COSMOS 2378",
        "group": "musson",
        "lat": -31.35320256285668,
        "lon": -8.108445697533766,
        "alt_km": 1008.2352364859335,
        "timestamp": "2025-12-17T10:52:54.623115+00:00",
        "meta_object_name": "COSMOS 2378",
        "meta_object_id": "2001-023A",
        "meta_epoch": "2025-12-17T00:38:10.726656",
        "meta_mean_motion": 13.7414238,
        "meta_eccentricity": 0.00326587,
        "meta_inclination": 82.9272,
        "meta_ra_of_asc_node": 356.5461,
        "meta_arg_of_pericenter": 192.799,
        "meta_mean_anomaly": 184.7935,
        "meta_ephemeris_type": 0,
        "meta_classification_type": "U",
        "meta_norad_cat_id": 26818,
        "meta_element_set_no": 999,
        "meta_rev_at_epoch": 22982,
        "meta_bstar": 5.2605687e-05,
        "meta_mean_motion_dot": 6.5e-07,
        "meta_mean_motion_ddot": 0,
        "tle_line1": "1 26818U 01023A   25351.02651304  .00000065  00000+0  52606-4 0  9991",
        "tle_line2": "2 26818  82.9272 356.5461 0032658 192.7990 184.7935 13.74142380229821"
      },
      "geometry": {
        "type": "Point",
        "coordinates": [
          -8.108445697533766,
          -31.35320256285668
        ]
      }
    },
    {
      "type": "Feature",
      "properties": {
        "norad_id": 27436,
        "name": "COSMOS 2389",
        "group": "musson",
        "lat": -12.633177507231023,
        "lon": 125.08445221013966,
        "alt_km": 1014.0016928267742,
        "timestamp": "2025-12-17T10:52:54.623129+00:00",
        "meta_object_name": "COSMOS 2389",
        "meta_object_id": "2002-026A",
        "meta_epoch": "2025-12-16T23:48:40.572864",
        "meta_mean_motion": 13.75155153,
        "meta_eccentricity": 0.0047508,
        "meta_inclination": 82.9506,
        "meta_ra_of_asc_node": 303.8366,
        "meta_arg_of_pericenter": 49.1945,
        "meta_mean_anomaly": 20.831,
        "meta_ephemeris_type": 0,
        "meta_classification_type": "U",
        "meta_norad_cat_id": 27436,
        "meta_element_set_no": 999,
        "meta_rev_at_epoch": 18207,
        "meta_bstar": 4.2215983e-05,
        "meta_mean_motion_dot": 5.6e-07,
        "meta_mean_motion_ddot": 0,
        "tle_line1": "1 27436U 02026A   25350.99213626  .00000056  00000+0  42216-4 0  9994",
        "tle_line2": "2 27436  82.9506 303.8366 0047508  49.1945  20.8310 13.75155153182077"
      },
      "geometry": {
        "type": "Point",
        "coordinates": [
          125.08445221013966,
          -12.633177507231023
        ]
      }
    },
    {
      "type": "Feature",
      "properties": {
        "norad_id": 27818,
        "name": "COSMOS 2398",
        "group": "musson",
        "lat": 79.30773519251483,
        "lon": 48.264238139528,
        "alt_km": 959.5865831649098,
        "timestamp": "2025-12-17T10:52:54.623160+00:00",
        "meta_object_name": "COSMOS 2398",
        "meta_object_id": "2003-023A",
        "meta_epoch": "2025-12-16T20:42:23.487840",
        "meta_mean_motion": 13.72386143,
        "meta_eccentricity": 0.00326953,
        "meta_inclination": 82.9484,
        "meta_ra_of_asc_node": 269.6601,
        "meta_arg_of_pericenter": 100.7657,
        "meta_mean_anomaly": 320.8206,
        "meta_ephemeris_type": 0,
        "meta_classification_type": "U",
        "meta_norad_cat_id": 27818,
        "meta_element_set_no": 999,
        "meta_rev_at_epoch": 12873,
        "meta_bstar": 3.8763909e-05,
        "meta_mean_motion_dot": 5.1e-07,
        "meta_mean_motion_ddot": 0,
        "tle_line1": "1 27818U 03023A   25350.86277185  .00000051  00000+0  38764-4 0  9990",
        "tle_line2": "2 27818  82.9484 269.6601 0032695 100.7657 320.8206 13.72386143128734"
      },
      "geometry": {
        "type": "Point",
        "coordinates": [
          48.264238139528,
          79.30773519251483
        ]
      }
    },
    {
      "type": "Feature",
      "properties": {
        "norad_id": 28380,
        "name": "COSMOS 2407",
        "group": "musson",
        "lat": -0.08421788270183898,
        "lon": -150.6076500676231,
        "alt_km": 957.8788428203925,
        "timestamp": "2025-12-17T10:52:54.623175+00:00",
        "meta_object_name": "COSMOS 2407",
        "meta_object_id": "2004-028A",
        "meta_epoch": "2025-12-16T23:14:41.029152",
        "meta_mean_motion": 13.76314177,
        "meta_eccentricity": 0.00401623,
        "meta_inclination": 82.9601,
        "meta_ra_of_asc_node": 209.7618,
        "meta_arg_of_pericenter": 43.348,
        "meta_mean_anomaly": 75.8985,
        "meta_ephemeris_type": 0,
        "meta_classification_type": "U",
        "meta_norad_cat_id": 28380,
        "meta_element_set_no": 999,
        "meta_rev_at_epoch": 7481,
        "meta_bstar": 7.1978188e-05,
        "meta_mean_motion_dot": 8.6e-07,
        "meta_mean_motion_ddot": 0,
        "tle_line1": "1 28380U 04028A   25350.96853043  .00000086  00000+0  71978-4 0  9997",
        "tle_line2": "2 28380  82.9601 209.7618 0040162  43.3480  75.8985 13.76314177 74819"
      },
      "geometry": {
        "type": "Point",
        "coordinates": [
          -150.6076500676231,
          -0.08421788270183898
        ]
      }
    },
    {
      "type": "Feature",
      "properties": {
        "norad_id": 28521,
        "name": "COSMOS 2414",
        "group": "musson",
        "lat": 77.78175352829523,
        "lon": -33.76368920899223,
        "alt_km": 901.7803975374909,
        "timestamp": "2025-12-17T10:52:54.623187+00:00",
        "meta_object_name": "COSMOS 2414",
        "meta_object_id": "2005-002A",
        "meta_epoch": "2025-12-17T00:01:16.929696",
        "meta_mean_motion": 13.87903571,
        "meta_eccentricity": 0.00411218,
        "meta_inclination": 82.9489,
        "meta_ra_of_asc_node": 181.4377,
        "meta_arg_of_pericenter": 127.7959,
        "meta_mean_anomaly": 232.694,
        "meta_ephemeris_type": 0,
        "meta_classification_type": "U",
        "meta_norad_cat_id": 28521,
        "meta_element_set_no": 999,
        "meta_rev_at_epoch": 5854,
        "meta_bstar": 6.7947314e-05,
        "meta_mean_motion_dot": 9.7e-07,
        "meta_mean_motion_ddot": 0,
        "tle_line1": "1 28521U 05002A   25351.00089039  .00000097  00000+0  67947-4 0  9992",
        "tle_line2": "2 28521  82.9489 181.4377 0041121 127.7959 232.6940 13.87903571 58542"
      },
      "geometry": {
        "type": "Point",
        "coordinates": [
          -33.76368920899223,
          77.78175352829523
        ]
      }
    },
    {
      "type": "Feature",
      "properties": {
        "norad_id": 32052,
        "name": "COSMOS 2429",
        "group": "musson",
        "lat": 17.756903715482906,
        "lon": -17.90505697738078,
        "alt_km": 952.971038429966,
        "timestamp": "2025-12-17T10:52:54.623197+00:00",
        "meta_object_name": "COSMOS 2429",
        "meta_object_id": "2007-038A",
        "meta_epoch": "2025-12-16T22:34:19.294176",
        "meta_mean_motion": 13.75149861,
        "meta_eccentricity": 0.00390161,
        "meta_inclination": 82.9804,
        "meta_ra_of_asc_node": 340.2117,
        "meta_arg_of_pericenter": 26.3683,
        "meta_mean_anomaly": 333.9448,
        "meta_ephemeris_type": 0,
        "meta_classification_type": "U",
        "meta_norad_cat_id": 32052,
        "meta_element_set_no": 999,
        "meta_rev_at_epoch": 91660,
        "meta_bstar": 6.3036203e-05,
        "meta_mean_motion_dot": 7.6e-07,
        "meta_mean_motion_ddot": 0,
        "tle_line1": "1 32052U 07038A   25350.94050109  .00000076  00000+0  63036-4 0  9997",
        "tle_line2": "2 32052  82.9804 340.2117 0039016  26.3683 333.9448 13.75149861916601"
      },
      "geometry": {
        "type": "Point",
        "coordinates": [
          -17.90505697738078,
          17.756903715482906
        ]
      }
    },
    {
      "type": "Feature",
      "properties": {
        "norad_id": 35635,
        "name": "COSMOS 2454",
        "group": "musson",
        "lat": -4.993710131559201,
        "lon": -14.309376945228257,
        "alt_km": 940.6992017689945,
        "timestamp": "2025-12-17T10:52:54.623214+00:00",
        "meta_object_name": "COSMOS 2454",
        "meta_object_id": "2009-039A",
        "meta_epoch": "2025-12-16T22:41:12.405408",
        "meta_mean_motion": 13.8992914,
        "meta_eccentricity": 0.00203621,
        "meta_inclination": 82.9553,
        "meta_ra_of_asc_node": 165.4568,
        "meta_arg_of_pericenter": 62.5062,
        "meta_mean_anomaly": 101.1284,
        "meta_ephemeris_type": 0,
        "meta_classification_type": "U",
        "meta_norad_cat_id": 35635,
        "meta_element_set_no": 999,
        "meta_rev_at_epoch": 83208,
        "meta_bstar": 5.4603126e-05,
        "meta_mean_motion_dot": 8.3e-07,
        "meta_mean_motion_ddot": 0,
        "tle_line1": "1 35635U 09039A   25350.94528247  .00000083  00000+0  54603-4 0  9991",
        "tle_line2": "2 35635  82.9553 165.4568 0020362  62.5062 101.1284 13.89929140832089"
      },
      "geometry": {
        "type": "Point",
        "coordinates": [
          -14.309376945228257,
          -4.993710131559201
        ]
      }
    },
    {
      "type": "Feature",
      "properties": {
        "norad_id": 36519,
        "name": "COSMOS 2463",
        "group": "musson",
        "lat": -81.26997515214072,
        "lon": -30.3215037206524,
        "alt_km": 975.4272944477443,
        "timestamp": "2025-12-17T10:52:54.623236+00:00",
        "meta_object_name": "COSMOS 2463",
        "meta_object_id": "2010-017A",
        "meta_epoch": "2025-12-16T20:22:52.735872",
        "meta_mean_motion": 13.71649506,
        "meta_eccentricity": 0.00347325,
        "meta_inclination": 82.961,
        "meta_ra_of_asc_node": 23.6927,
        "meta_arg_of_pericenter": 276.1969,
        "meta_mean_anomaly": 257.2123,
        "meta_ephemeris_type": 0,
        "meta_classification_type": "U",
        "meta_norad_cat_id": 36519,
        "meta_element_set_no": 999,
        "meta_rev_at_epoch": 78293,
        "meta_bstar": 5.9804549e-05,
        "meta_mean_motion_dot": 6.9e-07,
        "meta_mean_motion_ddot": 0,
        "tle_line1": "1 36519U 10017A   25350.84922148  .00000069  00000+0  59805-4 0  9991",
        "tle_line2": "2 36519  82.9610  23.6927 0034732 276.1969 257.2123 13.71649506782933"
      },
      "geometry": {
        "type": "Point",
        "coordinates": [
          -30.3215037206524,
          -81.26997515214072
        ]
      }
    }
  ]
}